CCSDS_OMM_VERS = 2.0
CREATION_DATE  = 
ORIGINATOR     = 

OBJECT_NAME    = IDEFIX & ARIANE 42P R/B
OBJECT_ID      = 2002-021B
CENTER_NAME    = EARTH
REF_FRAME      = TEME
TIME_SYSTEM    = UTC
MEAN_ELEMENT_THEORY = SGP/SGP4

EPOCH          = 2026-01-23T12:53:01.724064
MEAN_MOTION    = 14.30988498
ECCENTRICITY   = .0011255
INCLINATION    = 98.5829
RA_OF_ASC_NODE = 322.6958
ARG_OF_PERICENTER = 325.6384
MEAN_ANOMALY   = 34.4070

EPHEMERIS_TYPE = 0
CLASSIFICATION_TYPE = U
NORAD_CAT_ID   = 27422
ELEMENT_SET_NO = 999
REV_AT_EPOCH   = 23756
BSTAR          = .25793231E-3
MEAN_MOTION_DOT = .635E-5
MEAN_MOTION_DDOT = 0

CCSDS_OMM_VERS = 2.0
CREATION_DATE  = 
ORIGINATOR     = 

OBJECT_NAME    = AQUA
OBJECT_ID      = 2002-022A
CENTER_NAME    = EARTH
REF_FRAME      = TEME
TIME_SYSTEM    = UTC
MEAN_ELEMENT_THEORY = SGP/SGP4

EPOCH          = 2026-01-24T04:56:54.897216
MEAN_MOTION    = 14.61855013
ECCENTRICITY   = .000192
INCLINATION    = 98.4098
RA_OF_ASC_NODE = 350.7890
ARG_OF_PERICENTER = 67.0508
MEAN_ANOMALY   = 46.8248

EPHEMERIS_TYPE = 0
CLASSIFICATION_TYPE = U
NORAD_CAT_ID   = 27424
ELEMENT_SET_NO = 999
REV_AT_EPOCH   = 26223
BSTAR          = .45203E-3
MEAN_MOTION_DOT = .221E-4
MEAN_MOTION_DDOT = 0

CCSDS_OMM_VERS = 2.0
CREATION_DATE  = 
ORIGINATOR     = 

OBJECT_NAME    = CZ-4B R/B
OBJECT_ID      = 2002-024C
CENTER_NAME    = EARTH
REF_FRAME      = TEME
TIME_SYSTEM    = UTC
MEAN_ELEMENT_THEORY = SGP/SGP4

EPOCH          = 2026-01-24T03:46:50.448576
MEAN_MOTION    = 14.14538810
ECCENTRICITY   = .0050737
INCLINATION    = 98.8933
RA_OF_ASC_NODE = 77.7680
ARG_OF_PERICENTER = 148.6079
MEAN_ANOMALY   = 276.2436

EPHEMERIS_TYPE = 0
CLASSIFICATION_TYPE = U
NORAD_CAT_ID   = 27432
ELEMENT_SET_NO = 999
REV_AT_EPOCH   = 22294
BSTAR          = .94243E-4
MEAN_MOTION_DOT = .139E-5
MEAN_MOTION_DDOT = 0

CCSDS_OMM_VERS = 2.0
CREATION_DATE  = 
ORIGINATOR     = 

OBJECT_NAME    = MIDORI II (ADEOS-II)
OBJECT_ID      = 2002-056A
CENTER_NAME    = EARTH
REF_FRAME      = TEME
TIME_SYSTEM    = UTC
MEAN_ELEMENT_THEORY = SGP/SGP4

EPOCH          = 2026-01-24T03:21:45.458208
MEAN_MOTION    = 14.29246492
ECCENTRICITY   = .0001964
INCLINATION    = 98.7697
RA_OF_ASC_NODE = 342.3329
ARG_OF_PERICENTER = 105.2463
MEAN_ANOMALY   = 254.8936

EPHEMERIS_TYPE = 0
CLASSIFICATION_TYPE = U
NORAD_CAT_ID   = 27597
ELEMENT_SET_NO = 999
REV_AT_EPOCH   = 20393
BSTAR          = .30942E-3
MEAN_MOTION_DOT = .741E-5
MEAN_MOTION_DDOT = 0

CCSDS_OMM_VERS = 2.0
CREATION_DATE  = 
ORIGINATOR     = 

OBJECT_NAME    = H-2A R/B
OBJECT_ID      = 2002-056E
CENTER_NAME    = EARTH
REF_FRAME      = TEME
TIME_SYSTEM    = UTC
MEAN_ELEMENT_THEORY = SGP/SGP4

EPOCH          = 2026-01-24T04:08:57.598368
MEAN_MOTION    = 14.33723261
ECCENTRICITY   = .0069171
INCLINATION    = 98.3126
RA_OF_ASC_NODE = 346.2556
ARG_OF_PERICENTER = 294.8189
MEAN_ANOMALY   = 75.4393

EPHEMERIS_TYPE = 0
CLASSIFICATION_TYPE = U
NORAD_CAT_ID   = 27601
ELEMENT_SET_NO = 999
REV_AT_EPOCH   = 20773
BSTAR          = .28192E-3
MEAN_MOTION_DOT = .762E-5
MEAN_MOTION_DDOT = 0

CCSDS_OMM_VERS = 2.0
CREATION_DATE  = 
ORIGINATOR     = 

OBJECT_NAME    = CZ-4B R/B
OBJECT_ID      = 2003-049C
CENTER_NAME    = EARTH
REF_FRAME      = TEME
TIME_SYSTEM    = UTC
MEAN_ELEMENT_THEORY = SGP/SGP4

EPOCH          = 2026-01-23T23:00:52.544736
MEAN_MOTION    = 14.54963428
ECCENTRICITY   = .0048451
INCLINATION    = 98.6829
RA_OF_ASC_NODE = 17.1277
ARG_OF_PERICENTER = 9.6181
MEAN_ANOMALY   = 350.5931

EPHEMERIS_TYPE = 0
CLASSIFICATION_TYPE = U
NORAD_CAT_ID   = 28059
ELEMENT_SET_NO = 999
REV_AT_EPOCH   = 18009
BSTAR          = .24269E-3
MEAN_MOTION_DOT = .1009E-4
MEAN_MOTION_DDOT = 0

CCSDS_OMM_VERS = 2.0
CREATION_DATE  = 
ORIGINATOR     = 

OBJECT_NAME    = CZ-2C R/B
OBJECT_ID      = 2004-012C
CENTER_NAME    = EARTH
REF_FRAME      = TEME
TIME_SYSTEM    = UTC
MEAN_ELEMENT_THEORY = SGP/SGP4

EPOCH          = 2026-01-24T03:31:54.538464
MEAN_MOTION    = 15.59420196
ECCENTRICITY   = .001701
INCLINATION    = 97.7334
RA_OF_ASC_NODE = 85.3745
ARG_OF_PERICENTER = 114.0735
MEAN_ANOMALY   = 246.2303

EPHEMERIS_TYPE = 0
CLASSIFICATION_TYPE = U
NORAD_CAT_ID   = 28222
ELEMENT_SET_NO = 999
REV_AT_EPOCH   = 19732
BSTAR          = .85838E-3
MEAN_MOTION_DOT = .6863E-3
MEAN_MOTION_DDOT = 0

CCSDS_OMM_VERS = 2.0
CREATION_DATE  = 
ORIGINATOR     = 

OBJECT_NAME    = SL-16 R/B
OBJECT_ID      = 2004-021B
CENTER_NAME    = EARTH
REF_FRAME      = TEME
TIME_SYSTEM    = UTC
MEAN_ELEMENT_THEORY = SGP/SGP4

EPOCH          = 2026-01-23T20:05:40.960896
MEAN_MOTION    = 14.14592109
ECCENTRICITY   = .00026586
INCLINATION    = 71.0026
RA_OF_ASC_NODE = 326.6200
ARG_OF_PERICENTER = 123.5251
MEAN_ANOMALY   = 236.6126

EPHEMERIS_TYPE = 0
CLASSIFICATION_TYPE = U
NORAD_CAT_ID   = 28353
ELEMENT_SET_NO = 999
REV_AT_EPOCH   = 11649
BSTAR          = -.5302089E-4
MEAN_MOTION_DOT = -.149E-5
MEAN_MOTION_DDOT = 0

CCSDS_OMM_VERS = 2.0
CREATION_DATE  = 
ORIGINATOR     = 

OBJECT_NAME    = CZ-4B R/B
OBJECT_ID      = 2004-035C
CENTER_NAME    = EARTH
REF_FRAME      = TEME
TIME_SYSTEM    = UTC
MEAN_ELEMENT_THEORY = SGP/SGP4

EPOCH          = 2026-01-24T00:05:26.377728
MEAN_MOTION    = 15.28192064
ECCENTRICITY   = .0034114
INCLINATION    = 97.3564
RA_OF_ASC_NODE = 58.7960
ARG_OF_PERICENTER = 125.5200
MEAN_ANOMALY   = 234.9230

EPHEMERIS_TYPE = 0
CLASSIFICATION_TYPE = U
NORAD_CAT_ID   = 28415
ELEMENT_SET_NO = 999
REV_AT_EPOCH   = 17308
BSTAR          = .44135E-3
MEAN_MOTION_DOT = .12269E-3
MEAN_MOTION_DDOT = 0

CCSDS_OMM_VERS = 2.0
CREATION_DATE  = 
ORIGINATOR     = 

OBJECT_NAME    = CZ-2C R/B
OBJECT_ID      = 2004-046B
CENTER_NAME    = EARTH
REF_FRAME      = TEME
TIME_SYSTEM    = UTC
MEAN_ELEMENT_THEORY = SGP/SGP4

EPOCH          = 2026-01-24T00:43:26.935104
MEAN_MOTION    = 14.26972360
ECCENTRICITY   = .0138306
INCLINATION    = 98.2000
RA_OF_ASC_NODE = 301.7855
ARG_OF_PERICENTER = 287.1670
MEAN_ANOMALY   = 71.4410

EPHEMERIS_TYPE = 0
CLASSIFICATION_TYPE = U
NORAD_CAT_ID   = 28480
ELEMENT_SET_NO = 999
REV_AT_EPOCH   = 10213
BSTAR          = .16738E-3
MEAN_MOTION_DOT = .408E-5
MEAN_MOTION_DDOT = 0

CCSDS_OMM_VERS = 2.0
CREATION_DATE  = 
ORIGINATOR     = 

OBJECT_NAME    = ARIANE 5 R/B
OBJECT_ID      = 2004-049H
CENTER_NAME    = EARTH
REF_FRAME      = TEME
TIME_SYSTEM    = UTC
MEAN_ELEMENT_THEORY = SGP/SGP4

EPOCH          = 2026-01-23T21:33:45.360288
MEAN_MOTION    = 14.85154829
ECCENTRICITY   = .0085197
INCLINATION    = 98.2555
RA_OF_ASC_NODE = 190.7022
ARG_OF_PERICENTER = 135.6886
MEAN_ANOMALY   = 225.1189

EPHEMERIS_TYPE = 0
CLASSIFICATION_TYPE = U
NORAD_CAT_ID   = 28499
ELEMENT_SET_NO = 999
REV_AT_EPOCH   = 13914
BSTAR          = .23401E-3
MEAN_MOTION_DOT = .2074E-4
MEAN_MOTION_DDOT = 0

CCSDS_OMM_VERS = 2.0
CREATION_DATE  = 
ORIGINATOR     = 

OBJECT_NAME    = CZ-2D R/B
OBJECT_ID      = 2005-024B
CENTER_NAME    = EARTH
REF_FRAME      = TEME
TIME_SYSTEM    = UTC
MEAN_ELEMENT_THEORY = SGP/SGP4

EPOCH          = 2026-01-24T00:16:05.607264
MEAN_MOTION    = 15.56210148
ECCENTRICITY   = .0005508
INCLINATION    = 97.3626
RA_OF_ASC_NODE = 37.6534
ARG_OF_PERICENTER = 158.6768
MEAN_ANOMALY   = 201.4717

EPHEMERIS_TYPE = 0
CLASSIFICATION_TYPE = U
NORAD_CAT_ID   = 28738
ELEMENT_SET_NO = 999
REV_AT_EPOCH   = 13282
BSTAR          = .7274E-3
MEAN_MOTION_DOT = .51153E-3
MEAN_MOTION_DDOT = 0

