IDEFIX & ARIANE 42P R/B 
1 27422U 02021B   26023.53682551  .00000635  00000+0  25793-3 0  9992
2 27422  98.5829 322.6958 0011255 325.6384  34.4070 14.30988498237565
AQUA                    
1 27424U 02022A   26024.20619094  .00002210  00000+0  45203-3 0  9991
2 27424  98.4098 350.7890 0001920  67.0508  46.8248 14.61855013262230
CZ-4B R/B               
1 27432U 02024C   26024.15752834  .00000139  00000+0  94243-4 0  9993
2 27432  98.8933  77.7680 0050737 148.6079 276.2436 14.14538810222946
MIDORI II (ADEOS-II)    
1 27597U 02056A   26024.14010947  .00000741  00000+0  30942-3 0  9995
2 27597  98.7697 342.3329 0001964 105.2463 254.8936 14.29246492203932
H-2A R/B                
1 27601U 02056E   26024.17288887  .00000762  00000+0  28192-3 0  9991
2 27601  98.3126 346.2556 0069171 294.8189  75.4393 14.33723261207735
CZ-4B R/B               
1 28059U 03049C   26023.95894149  .00001009  00000+0  24269-3 0  9997
2 28059  98.6829  17.1277 0048451   9.6181 350.5931 14.54963428180090
CZ-2C R/B               
1 28222U 04012C   26024.14715901  .00068630  00000+0  85838-3 0  9992
2 28222  97.7334  85.3745 0017010 114.0735 246.2303 15.59420196197327
SL-16 R/B               
1 28353U 04021B   26023.83727964 -.00000149  00000+0 -53021-4 0  9997
2 28353  71.0026 326.6200 0002658 123.5251 236.6126 14.14592109116491
CZ-4B R/B               
1 28415U 04035C   26024.00377752  .00012269  00000+0  44135-3 0  9996
2 28415  97.3564  58.7960 0034114 125.5200 234.9230 15.28192064173089
CZ-2C R/B               
1 28480U 04046B   26024.03017286  .00000408  00000+0  16738-3 0  9996
2 28480  98.2000 301.7855 0138306 287.1670  71.4410 14.26972360102138
ARIANE 5 R/B            
1 28499U 04049H   26023.89844167  .00002074  00000+0  23401-3 0  9994
2 28499  98.2555 190.7022 0085197 135.6886 225.1189 14.85154829139149
CZ-2D R/B               
1 28738U 05024B   26024.01117601  .00051153  00000+0  72740-3 0  9997
2 28738  97.3626  37.6534 0005508 158.6768 201.4717 15.56210148132821
